ONEWEB-0168             
1 48068U 21025AC  24048.46687588 -.00000069  00000+0 -22361-3 0  9999
2 48068  87.8994 129.5485 0001761 107.7425 252.3896 13.13470056141885
ONEWEB-0173             
1 48069U 21025AD  24048.61129683 -.00000218  00000+0 -63141-3 0  9991
2 48069  87.8993 129.5303 0001538  99.5203 260.6100 13.13471009142147
ONEWEB-0171             
1 48070U 21025AE  24048.49543955 -.00000052  00000+0 -17786-3 0  9991
2 48070  87.8993 129.5881 0001770 100.5915 259.5414 13.13471520141941
ONEWEB-0172             
1 48071U 21025AF  24048.24627581 -.00000235  00000+0 -67882-3 0  9998
2 48071  87.8994 129.6043 0001728  99.5249 260.6075 13.13471143142807
ONEWEB-0174             
1 48072U 21025AG  24048.60972157  .00000131  00000+0  32391-3 0  9991
2 48072  87.8994 129.5466 0001858 110.9474 249.1854 13.13468418142176
ONEWEB-0175             
1 48073U 21025AH  24048.25738596 -.00000175  00000+0 -51304-3 0  9995
2 48073  87.8986 129.6120 0001983  92.8077 267.3279 13.13471875141782
ONEWEB-0177             
1 48074U 21025AJ  24048.49861092  .00000040  00000+0  73569-4 0  9997
2 48074  87.8988 129.5701 0001402 109.8703 250.2577 13.13471432142007
ONEWEB-0178             
1 48075U 21025AK  24048.59239083  .00000273  00000+0  71187-3 0  9999
2 48075  87.8995 129.5611 0001558 106.3578 253.7723 13.13471402142064
